JILIN-1 GAOFEN 3A       
1 44312U 19032C   26068.74542089  .00016264  00000+0  55381-3 0  9993
2 44312  44.9746 183.2861 0002618 111.2900 248.8263 15.30271310372592
STARLINK-35817          
1 66357U 25254K   26068.74971652  .00023643  00000+0  80783-3 0  9994
2 66357  53.1569 232.2608 0000987  91.8440 268.2674 15.30200243 18982
